NORAD_CAT_ID,OBJECT_NAME,OBJECT_TYPE,EPOCH,MEAN_MOTION,ECCENTRICITY,INCLINATION,RA_OF_ASC_NODE,ARG_OF_PERICENTER,MEAN_ANOMALY,BSTAR,MEAN_MOTION_DOT,MEAN_MOTION_DDOT,TLE_LINE0,TLE_LINE1,TLE_LINE2,SEMIMAJOR_AXIS,PERIOD,APOGEE,PERIGEE,DECAYED
56472.0,STARLINK-5038,PAYLOAD,2024-01-23 02:47:35,14.98326239,0.0002455,70.0012,282.5749,241.9758,118.1153,1.3225e-05,6.5e-07,0.0,0 STARLINK-5038,1 56472U 23064AA  24023.11638256  .00000065  00000-0  13225-4 0  9990,2 56472  70.0012 282.5749 0002455 241.9758 118.1153 14.98326239 39419,6950.205,96.107,573.776,570.363,0.0
56472.0,STARLINK-5038,PAYLOAD,2024-01-23 22:01:11,14.98331965,0.000262,70.0001,280.5533,257.7821,102.3045,1.1994e-05,5e-07,0.0,0 STARLINK-5038,1 56472U 23064AA  24023.91749877  .00000050  00000-0  11994-4 0  9995,2 56472  70.0001 280.5533 0002620 257.7821 102.3045 14.98331965 39536,6950.187,96.107,573.873,570.231,0.0
56472.0,STARLINK-5038,PAYLOAD,2024-01-24 02:49:35,14.98334505,0.0002611,70.0003,280.049,255.0375,105.0495,2.4939e-05,2.05e-06,0.0,0 STARLINK-5038,1 56472U 23064AA  24024.11777590  .00000205  00000-0  24939-4 0  9996,2 56472  70.0003 280.0490 0002611 255.0375 105.0495 14.98334505 39925,6950.179,96.107,573.859,570.229,0.0
56472.0,STARLINK-5038,PAYLOAD,2024-01-24 22:03:12,14.9833237,0.000261,70.0004,278.0301,253.9388,106.1484,-9.9088e-06,-2.11e-06,0.0,0 STARLINK-5038,1 56472U 23064AA  24024.91889767 -.00000211  00000-0 -99088-5 0  9991,2 56472  70.0004 278.0301 0002610 253.9388 106.1484 14.98332370 39685,6950.186,96.107,573.865,570.237,0.0
56472.0,STARLINK-5038,PAYLOAD,2024-01-25 02:51:37,14.98329088,0.0002662,70.0001,277.5241,258.4342,101.6518,-2.6512e-05,-4.09e-06,0.0,0 STARLINK-5038,1 56472U 23064AA  24025.11918027 -.00000409  00000-0 -26512-4 0  9996,2 56472  70.0001 277.5241 0002662 258.4342 101.6518 14.98329088 40071,6950.196,96.107,573.911,570.211,0.0
56472.0,STARLINK-5038,PAYLOAD,2024-01-25 20:29:05,14.98329615,0.0002631,70.0001,275.6724,258.4552,101.6311,-3.9372e-05,-5.63e-06,0.0,0 STARLINK-5038,1 56472U 23064AA  24025.85354036 -.00000563  00000-0 -39372-4 0  9990,2 56472  70.0001 275.6724 0002631 258.4552 101.6311 14.98329615 39823,6950.194,96.107,573.888,570.23,0.0
56472.0,STARLINK-5038,PAYLOAD,2024-01-26 02:53:38,14.98329881,0.0002567,70.0001,274.9989,258.478,101.6091,-9.5126e-06,-2.06e-06,0.0,0 STARLINK-5038,1 56472U 23064AA  24026.12057943 -.00000206  00000-0 -95126-5 0  9992,2 56472  70.0001 274.9989 0002567 258.4780 101.6091 14.98329881 40225,6950.193,96.107,573.842,570.274,0.0
56472.0,STARLINK-5038,PAYLOAD,2024-01-27 01:19:30,14.9833046,0.0002633,69.9998,272.6417,260.1453,99.9409,4.34e-05,4.25e-06,0.0,0 STARLINK-5038,1 56472U 23064AA  24027.05521670  .00000425  00000-0  43400-4 0  9996,2 56472  69.9998 272.6417 0002633 260.1453  99.9409 14.98330460 40002,6950.191,96.107,573.886,570.226,0.0
56472.0,STARLINK-5038,PAYLOAD,2024-01-27 20:33:07,14.98330259,0.0002682,69.9995,270.6215,258.5957,101.4901,2.167e-05,1.66e-06,0.0,0 STARLINK-5038,1 56472U 23064AA  24027.85633700  .00000166  00000-0  21670-4 0  9999,2 56472  69.9995 270.6215 0002682 258.5957 101.4901 14.98330259 40481,6950.192,96.107,573.921,570.193,0.0
56472.0,STARLINK-5038,PAYLOAD,2024-01-27 22:09:15,14.98330293,0.0002679,69.9996,270.4533,258.9527,101.1331,2.0991e-05,1.58e-06,0.0,0 STARLINK-5038,1 56472U 23064AA  24027.92309689  .00000158  00000-0  20991-4 0  9999,2 56472  69.9996 270.4533 0002679 258.9527 101.1331 14.98330293 40130,6950.192,96.107,573.919,570.195,0.0
56472.0,STARLINK-5038,PAYLOAD,2024-01-28 01:21:31,14.98330461,0.000268,69.9996,270.1168,259.3832,100.7025,2.0777e-05,1.55e-06,0.0,0 STARLINK-5038,1 56472U 23064AA  24028.05661675  .00000155  00000-0  20777-4 0  9999,2 56472  69.9996 270.1168 0002680 259.3832 100.7025 14.98330461 40151,6950.191,96.107,573.919,570.194,0.0
56472.0,STARLINK-5038,PAYLOAD,2024-01-28 22:11:16,14.98331188,0.0002653,69.9996,267.928,256.1812,103.9052,-2.1806e-06,-1.19e-06,0.0,0 STARLINK-5038,1 56472U 23064AA  24028.92449576 -.00000119  00000-0 -21806-5 0  9996,2 56472  69.9996 267.9280 0002653 256.1812 103.9052 14.98331188 40289,6950.189,96.107,573.898,570.21,0.0
56472.0,STARLINK-5038,PAYLOAD,2024-01-29 01:23:32,14.98332621,0.0002714,69.9992,267.5907,264.546,95.5389,1.1869e-05,4.9e-07,0.0,0 STARLINK-5038,1 56472U 23064AA  24029.05801462  .00000049  00000-0  11869-4 0  9994,2 56472  69.9992 267.5907 0002714 264.5460  95.5389 14.98332621 40661,6950.185,96.107,573.936,570.164,0.0
56472.0,STARLINK-5038,PAYLOAD,2024-01-30 01:25:33,14.98329306,0.0002732,69.999,265.0661,266.3759,93.7088,-9.108e-06,-2.02e-06,0.0,0 STARLINK-5038,1 56472U 23064AA  24030.05941647 -.00000202  00000-0 -91080-5 0  9993,2 56472  69.9990 265.0661 0002732 266.3759  93.7088 14.98329306 40819,6950.195,96.107,573.959,570.161,0.0
56472.0,STARLINK-5038,PAYLOAD,2024-01-30 22:15:18,14.98331639,0.0002801,69.9986,262.8769,266.7107,93.3732,2.6595e-06,-6.1e-07,0.0,0 STARLINK-5038,1 56472U 23064AA  24030.92729389 -.00000061  00000-0  26595-5 0  9997,2 56472  69.9986 262.8769 0002801 266.7107  93.3732 14.98331639 40584,6950.188,96.107,574.0,570.106,0.0
56472.0,STARLINK-5038,PAYLOAD,2024-01-31 01:27:34,14.98332616,0.000279,69.9986,262.5406,266.6675,93.4164,1.3772e-05,7.1e-07,0.0,0 STARLINK-5038,1 56472U 23064AA  24031.06081277  .00000071  00000-0  13772-4 0  9992,2 56472  69.9986 262.5406 0002790 266.6675  93.4164 14.98332616 40963,6950.185,96.107,573.989,570.111,0.0
56472.0,STARLINK-5038,PAYLOAD,2024-01-31 14:16:38,14.98330523,0.0002694,69.9988,261.195,262.9847,97.1006,2.6509e-06,-6.1e-07,0.0,0 STARLINK-5038,1 56472U 23064AA  24031.59489422 -.00000061  00000-0  26509-5 0  9997,2 56472  69.9988 261.1950 0002694 262.9847  97.1006 14.98330523 40687,6950.191,96.107,573.929,570.184,0.0
56472.0,STARLINK-5038,PAYLOAD,2024-02-01 01:29:35,14.9833004,0.0002711,69.9987,260.0167,264.8055,95.2795,-6.4688e-07,-1.01e-06,0.0,0 STARLINK-5038,1 56472U 23064AA  24032.06221445 -.00000101  00000-0 -64688-6 0  9996,2 56472  69.9987 260.0167 0002711 264.8055  95.2795 14.98330040 41113,6950.193,96.107,573.942,570.174,0.0
56472.0,STARLINK-5038,PAYLOAD,2024-02-01 14:18:39,14.98330342,0.0002699,69.9986,258.6701,264.9745,95.1106,-2.9186e-06,-1.28e-06,0.0,0 STARLINK-5038,1 56472U 23064AA  24032.59629414 -.00000128  00000-0 -29186-5 0  9994,2 56472  69.9986 258.6701 0002699 264.9745  95.1106 14.98330342 40839,6950.192,96.107,573.933,570.181,0.0
56472.0,STARLINK-5038,PAYLOAD,2024-02-01 23:55:28,14.98329269,0.000276,69.9986,257.6607,269.0383,91.046,-1.5422e-05,-2.77e-06,0.0,0 STARLINK-5038,1 56472U 23064AA  24032.99685528 -.00000277  00000-0 -15422-4 0  9998,2 56472  69.9986 257.6607 0002760 269.0383  91.0460 14.98329269 40896,6950.195,96.107,573.978,570.142,0.0
56472.0,STARLINK-5038,PAYLOAD,2024-02-02 19:09:04,14.98331606,0.0002844,69.9989,255.6407,267.3299,92.7535,1.6653e-05,1.06e-06,0.0,0 STARLINK-5038,1 56472U 23064AA  24033.79797204  .00000106  00000-0  16653-4 0  9998,2 56472  69.9989 255.6407 0002844 267.3299  92.7535 14.98331606 41378,6950.188,96.107,574.03,570.076,0.0
56472.0,STARLINK-5038,PAYLOAD,2024-02-02 22:21:20,14.98332498,0.000283,69.9986,255.3035,265.6295,94.454,2.5032e-05,2.06e-06,0.0,0 STARLINK-5038,1 56472U 23064AA  24033.93149094  .00000206  00000-0  25032-4 0  9994,2 56472  69.9986 255.3035 0002830 265.6295  94.4540 14.98332498 41039,6950.185,96.107,574.017,570.083,0.0
56472.0,STARLINK-5038,PAYLOAD,2024-02-02 23:57:28,14.98332464,0.0002827,69.9986,255.1351,265.577,94.5066,2.427e-05,1.97e-06,0.0,0 STARLINK-5038,1 56472U 23064AA  24033.99825087  .00000197  00000-0  24270-4 0  9995,2 56472  69.9986 255.1351 0002827 265.5770  94.5066 14.98332464 41049,6950.185,96.107,574.015,570.085,0.0
56472.0,STARLINK-5038,PAYLOAD,2024-02-03 19:11:06,14.98326635,0.0002767,69.9987,253.1148,266.8385,93.2457,-1.811e-05,-3.09e-06,0.0,0 STARLINK-5038,1 56472U 23064AA  24034.79937627 -.00000309  00000-0 -18110-4 0  9991,2 56472  69.9987 253.1148 0002767 266.8385  93.2457 14.98326635 41527,6950.203,96.107,573.991,570.145,0.0
56472.0,STARLINK-5038,PAYLOAD,2024-02-03 22:23:22,14.98325983,0.0002771,69.9987,252.7785,267.0936,92.9905,-2.5172e-05,-3.93e-06,0.0,0 STARLINK-5038,1 56472U 23064AA  24034.93289709 -.00000393  00000-0 -25172-4 0  9997,2 56472  69.9987 252.7785 0002771 267.0936  92.9905 14.98325983 41180,6950.205,96.107,573.996,570.144,0.0
56472.0,STARLINK-5038,PAYLOAD,2024-02-03 23:59:30,14.98326179,0.0002806,69.9986,252.6099,268.5496,91.5341,-2.6568e-05,-4.1e-06,0.0,0 STARLINK-5038,1 56472U 23064AA  24034.99965718 -.00000410  00000-0 -26568-4 0  9994,2 56472  69.9986 252.6099 0002806 268.5496  91.5341 14.98326179 41190,6950.205,96.107,574.02,570.119,0.0
56472.0,STARLINK-5038,PAYLOAD,2024-02-04 19:13:06,14.98332624,0.0002871,69.9984,250.5894,269.4798,90.6032,1.0684e-05,3.4e-07,0.0,0 STARLINK-5038,1 56472U 23064AA  24035.80077192  .00000034  00000-0  10684-4 0  9997,2 56472  69.9984 250.5894 0002871 269.4798  90.6032 14.98332624 41677,6950.185,96.107,574.045,570.054,0.0
56472.0,STARLINK-5038,PAYLOAD,2024-02-04 22:25:22,14.98333239,0.0002855,69.9983,250.2526,269.1749,90.9083,1.9402e-05,1.39e-06,0.0,0 STARLINK-5038,1 56472U 23064AA  24035.93429100  .00000139  00000-0  19402-4 0  9994,2 56472  69.9983 250.2526 0002855 269.1749  90.9083 14.98333239 41335,6950.183,96.107,574.032,570.064,0.0
56472.0,STARLINK-5038,PAYLOAD,2024-02-05 14:26:43,14.98328989,0.0002865,69.9984,248.5696,269.933,90.15,4.5649e-05,4.52e-06,0.0,0 STARLINK-5038,1 56472U 23064AA  24036.60189232  .00000452  00000-0  45649-4 0  9998,2 56472  69.9984 248.5696 0002865 269.9330  90.1500 14.98328989 41432,6950.196,96.107,574.052,570.07,0.0
56472.0,STARLINK-5038,PAYLOAD,2024-02-05 19:15:07,14.9832913,0.0002865,69.9984,248.0647,270.242,89.8411,4.5146e-05,4.46e-06,0.0,0 STARLINK-5038,1 56472U 23064AA  24036.80217235  .00000446  00000-0  45146-4 0  9990,2 56472  69.9984 248.0647 0002865 270.2420  89.8411 14.98329130 41826,6950.196,96.107,574.052,570.069,0.0
